[
  {
    "OBJECT_NAME": "STARLINK-33627",
    "OBJECT_ID": "25035S",
    "EPOCH": "2025-11-11T02:41:45.918528",
    "MEAN_MOTION": 15.27635066,
    "ECCENTRICITY": 0.0001392,
    "INCLINATION": 43.001,
    "RA_OF_ASC_NODE": 96.849,
    "ARG_OF_PERICENTER": 285.9858,
    "MEAN_ANOMALY": 74.084,
    "EPHEMERIS_TYPE": 0,
    "CLASSIFICATION_TYPE": "U",
    "NORAD_CAT_ID": 63068,
    "ELEMENT_SET_NO": 999,
    "REV_AT_EPOCH": 4158,
    "BSTAR": 0.0015941,
    "MEAN_MOTION_DOT": 0.00043941,
    "MEAN_MOTION_DDOT": 0.0,
    "TLE_LINE1": "1 63068U 25035S   25315.11233702  .00043941  00000+0  15941-2 0  9995",
    "TLE_LINE2": "2 63068  43.0010  96.8490 0001392 285.9858  74.0840 15.27635066 41581",
    "COMMENT": "Grouped by shell and plane from TLE"
  },
  {
    "OBJECT_NAME": "STARLINK-33620",
    "OBJECT_ID": "25035T",
    "EPOCH": "2025-11-11T02:36:14.068224",
    "MEAN_MOTION": 15.27580459,
    "ECCENTRICITY": 0.0001671,
    "INCLINATION": 43.0009,
    "RA_OF_ASC_NODE": 96.8191,
    "ARG_OF_PERICENTER": 288.4807,
    "MEAN_ANOMALY": 71.5863,
    "EPHEMERIS_TYPE": 0,
    "CLASSIFICATION_TYPE": "U",
    "NORAD_CAT_ID": 63069,
    "ELEMENT_SET_NO": 999,
    "REV_AT_EPOCH": 4158,
    "BSTAR": 0.0016868,
    "MEAN_MOTION_DOT": 0.00046448,
    "MEAN_MOTION_DDOT": 0.0,
    "TLE_LINE1": "1 63069U 25035T   25315.10849616  .00046448  00000+0  16868-2 0  9996",
    "TLE_LINE2": "2 63069  43.0009  96.8191 0001671 288.4807  71.5863 15.27580459 41582",
    "COMMENT": "Grouped by shell and plane from TLE"
  },
  {
    "OBJECT_NAME": "STARLINK-33604",
    "OBJECT_ID": "25035U",
    "EPOCH": "2025-11-10T16:14:06.518976",
    "MEAN_MOTION": 15.27611224,
    "ECCENTRICITY": 0.000204,
    "INCLINATION": 43.0038,
    "RA_OF_ASC_NODE": 99.5991,
    "ARG_OF_PERICENTER": 282.0402,
    "MEAN_ANOMALY": 78.0221,
    "EPHEMERIS_TYPE": 0,
    "CLASSIFICATION_TYPE": "U",
    "NORAD_CAT_ID": 63070,
    "ELEMENT_SET_NO": 999,
    "REV_AT_EPOCH": 4151,
    "BSTAR": 0.0015991,
    "MEAN_MOTION_DOT": 0.00044047,
    "MEAN_MOTION_DDOT": 0.0,
    "TLE_LINE1": "1 63070U 25035U   25314.67646434  .00044047  00000+0  15991-2 0  9991",
    "TLE_LINE2": "2 63070  43.0038  99.5991 0002040 282.0402  78.0221 15.27611224 41514",
    "COMMENT": "Grouped by shell and plane from TLE"
  },
  {
    "OBJECT_NAME": "STARLINK-33624",
    "OBJECT_ID": "25035V",
    "EPOCH": "2025-11-11T02:53:32.766432",
    "MEAN_MOTION": 15.27591581,
    "ECCENTRICITY": 2.51e-05,
    "INCLINATION": 43.0018,
    "RA_OF_ASC_NODE": 93.435,
    "ARG_OF_PERICENTER": 261.9627,
    "MEAN_ANOMALY": 98.1196,
    "EPHEMERIS_TYPE": 0,
    "CLASSIFICATION_TYPE": "U",
    "NORAD_CAT_ID": 63071,
    "ELEMENT_SET_NO": 999,
    "REV_AT_EPOCH": 4152,
    "BSTAR": 0.00077854,
    "MEAN_MOTION_DOT": 0.00021231,
    "MEAN_MOTION_DDOT": 0.0,
    "TLE_LINE1": "1 63071U 25035V   25315.12051813  .00021231  00000+0  77854-3 0  9991",
    "TLE_LINE2": "2 63071  43.0018  93.4350 0000251 261.9627  98.1196 15.27591581 41520",
    "COMMENT": "Grouped by shell and plane from TLE"
  },
  {
    "OBJECT_NAME": "STARLINK-33586",
    "OBJECT_ID": "25035X",
    "EPOCH": "2025-11-10T10:31:58.148544",
    "MEAN_MOTION": 15.27596254,
    "ECCENTRICITY": 0.0001439,
    "INCLINATION": 43.0031,
    "RA_OF_ASC_NODE": 93.4585,
    "ARG_OF_PERICENTER": 260.0911,
    "MEAN_ANOMALY": 99.9779,
    "EPHEMERIS_TYPE": 0,
    "CLASSIFICATION_TYPE": "U",
    "NORAD_CAT_ID": 63073,
    "ELEMENT_SET_NO": 999,
    "REV_AT_EPOCH": 4157,
    "BSTAR": 0.0011509,
    "MEAN_MOTION_DOT": 0.0003156,
    "MEAN_MOTION_DDOT": 0.0,
    "TLE_LINE1": "1 63073U 25035X   25314.43886746  .00031560  00000+0  11509-2 0  9997",
    "TLE_LINE2": "2 63073  43.0031  93.4585 0001439 260.0911  99.9779 15.27596254 41575",
    "COMMENT": "Grouped by shell and plane from TLE"
  },
  {
    "OBJECT_NAME": "STARLINK-33605",
    "OBJECT_ID": "25035Y",
    "EPOCH": "2025-11-11T02:10:17.344128",
    "MEAN_MOTION": 15.2760909,
    "ECCENTRICITY": 0.0002008,
    "INCLINATION": 43.0014,
    "RA_OF_ASC_NODE": 96.675,
    "ARG_OF_PERICENTER": 282.0583,
    "MEAN_ANOMALY": 78.0043,
    "EPHEMERIS_TYPE": 0,
    "CLASSIFICATION_TYPE": "U",
    "NORAD_CAT_ID": 63074,
    "ELEMENT_SET_NO": 999,
    "REV_AT_EPOCH": 4158,
    "BSTAR": 0.0015421000000000002,
    "MEAN_MOTION_DOT": 0.00042457,
    "MEAN_MOTION_DDOT": 0.0,
    "TLE_LINE1": "1 63074U 25035Y   25315.09047852  .00042457  00000+0  15421-2 0  9992",
    "TLE_LINE2": "2 63074  43.0014  96.6750 0002008 282.0583  78.0043 15.27609090 41584",
    "COMMENT": "Grouped by shell and plane from TLE"
  },
  {
    "OBJECT_NAME": "STARLINK-35159",
    "OBJECT_ID": "25195D",
    "EPOCH": "2025-11-10T10:04:25.862592",
    "MEAN_MOTION": 15.39689636,
    "ECCENTRICITY": 7.61e-05,
    "INCLINATION": 53.157,
    "RA_OF_ASC_NODE": 92.841,
    "ARG_OF_PERICENTER": 70.7037,
    "MEAN_ANOMALY": 289.405,
    "EPHEMERIS_TYPE": 0,
    "CLASSIFICATION_TYPE": "U",
    "NORAD_CAT_ID": 65461,
    "ELEMENT_SET_NO": 999,
    "REV_AT_EPOCH": 1172,
    "BSTAR": 0.0016386999999999999,
    "MEAN_MOTION_DOT": 0.00065866,
    "MEAN_MOTION_DDOT": 0.0,
    "TLE_LINE1": "1 65461U 25195D   25314.41974378  .00065866  00000+0  16387-2 0  9999",
    "TLE_LINE2": "2 65461  53.1570  92.8410 0000761  70.7037 289.4050 15.39689636 11722",
    "COMMENT": "Grouped by shell and plane from TLE"
  },
  {
    "OBJECT_NAME": "STARLINK-35180",
    "OBJECT_ID": "25195E",
    "EPOCH": "2025-11-10T16:04:57.261216",
    "MEAN_MOTION": 15.39607147,
    "ECCENTRICITY": 0.000272,
    "INCLINATION": 53.1584,
    "RA_OF_ASC_NODE": 91.5597,
    "ARG_OF_PERICENTER": 100.6124,
    "MEAN_ANOMALY": 259.5187,
    "EPHEMERIS_TYPE": 0,
    "CLASSIFICATION_TYPE": "U",
    "NORAD_CAT_ID": 65462,
    "ELEMENT_SET_NO": 999,
    "REV_AT_EPOCH": 1176,
    "BSTAR": 0.0014831,
    "MEAN_MOTION_DOT": 0.00059366,
    "MEAN_MOTION_DDOT": 0.0,
    "TLE_LINE1": "1 65462U 25195E   25314.67010719  .00059366  00000+0  14831-2 0  9998",
    "TLE_LINE2": "2 65462  53.1584  91.5597 0002720 100.6124 259.5187 15.39607147 11767",
    "COMMENT": "Grouped by shell and plane from TLE"
  },
  {
    "OBJECT_NAME": "STARLINK-35169",
    "OBJECT_ID": "25195H",
    "EPOCH": "2025-11-10T19:18:35.920224",
    "MEAN_MOTION": 15.39671529,
    "ECCENTRICITY": 0.0001038,
    "INCLINATION": 53.1614,
    "RA_OF_ASC_NODE": 90.9787,
    "ARG_OF_PERICENTER": 9.7921,
    "MEAN_ANOMALY": 350.3104,
    "EPHEMERIS_TYPE": 0,
    "CLASSIFICATION_TYPE": "U",
    "NORAD_CAT_ID": 65465,
    "ELEMENT_SET_NO": 999,
    "REV_AT_EPOCH": 1178,
    "BSTAR": 0.0020229000000000002,
    "MEAN_MOTION_DOT": 0.00081521,
    "MEAN_MOTION_DDOT": 0.0,
    "TLE_LINE1": "1 65465U 25195H   25314.80458241  .00081521  00000+0  20229-2 0  9998",
    "TLE_LINE2": "2 65465  53.1614  90.9787 0001038   9.7921 350.3104 15.39671529 11789",
    "COMMENT": "Grouped by shell and plane from TLE"
  },
  {
    "OBJECT_NAME": "STARLINK-35027",
    "OBJECT_ID": "25195J",
    "EPOCH": "2025-11-10T09:44:22.138656",
    "MEAN_MOTION": 15.39666741,
    "ECCENTRICITY": 0.0001039,
    "INCLINATION": 53.1565,
    "RA_OF_ASC_NODE": 92.7527,
    "ARG_OF_PERICENTER": 83.7165,
    "MEAN_ANOMALY": 276.3958,
    "EPHEMERIS_TYPE": 0,
    "CLASSIFICATION_TYPE": "U",
    "NORAD_CAT_ID": 65466,
    "ELEMENT_SET_NO": 999,
    "REV_AT_EPOCH": 1172,
    "BSTAR": 0.0018149000000000002,
    "MEAN_MOTION_DOT": 0.00073006,
    "MEAN_MOTION_DDOT": 0.0,
    "TLE_LINE1": "1 65466U 25195J   25314.40581179  .00073006  00000+0  18149-2 0  9999",
    "TLE_LINE2": "2 65466  53.1565  92.7527 0001039  83.7165 276.3958 15.39666741 11728",
    "COMMENT": "Grouped by shell and plane from TLE"
  },
  {
    "OBJECT_NAME": "STARLINK-35033",
    "OBJECT_ID": "25195L",
    "EPOCH": "2025-11-09T19:09:40.995360",
    "MEAN_MOTION": 15.396372,
    "ECCENTRICITY": 0.0002062,
    "INCLINATION": 53.1609,
    "RA_OF_ASC_NODE": 95.3607,
    "ARG_OF_PERICENTER": 69.8807,
    "MEAN_ANOMALY": 290.242,
    "EPHEMERIS_TYPE": 0,
    "CLASSIFICATION_TYPE": "U",
    "NORAD_CAT_ID": 65468,
    "ELEMENT_SET_NO": 999,
    "REV_AT_EPOCH": 1163,
    "BSTAR": 0.0016558,
    "MEAN_MOTION_DOT": 0.0006645,
    "MEAN_MOTION_DDOT": 0.0,
    "TLE_LINE1": "1 65468U 25195L   25313.79839115  .00066450  00000+0  16558-2 0  9995",
    "TLE_LINE2": "2 65468  53.1609  95.3607 0002062  69.8807 290.2420 15.39637200 11639",
    "COMMENT": "Grouped by shell and plane from TLE"
  },
  {
    "OBJECT_NAME": "STARLINK-34888",
    "OBJECT_ID": "25195P",
    "EPOCH": "2025-11-10T08:57:33.831936",
    "MEAN_MOTION": 15.39685669,
    "ECCENTRICITY": 0.0003409,
    "INCLINATION": 53.1582,
    "RA_OF_ASC_NODE": 92.5514,
    "ARG_OF_PERICENTER": 82.9027,
    "MEAN_ANOMALY": 277.2366,
    "EPHEMERIS_TYPE": 0,
    "CLASSIFICATION_TYPE": "U",
    "NORAD_CAT_ID": 65471,
    "ELEMENT_SET_NO": 999,
    "REV_AT_EPOCH": 1172,
    "BSTAR": 0.0015289,
    "MEAN_MOTION_DOT": 0.00061387,
    "MEAN_MOTION_DDOT": 0.0,
    "TLE_LINE1": "1 65471U 25195P   25314.37330824  .00061387  00000+0  15289-2 0  9991",
    "TLE_LINE2": "2 65471  53.1582  92.5514 0003409  82.9027 277.2366 15.39685669 11721",
    "COMMENT": "Grouped by shell and plane from TLE"
  },
  {
    "OBJECT_NAME": "STARLINK-34762",
    "OBJECT_ID": "25195R",
    "EPOCH": "2025-11-10T09:43:53.473728",
    "MEAN_MOTION": 15.39669083,
    "ECCENTRICITY": 0.0001531,
    "INCLINATION": 53.1565,
    "RA_OF_ASC_NODE": 92.7505,
    "ARG_OF_PERICENTER": 70.2764,
    "MEAN_ANOMALY": 289.8406,
    "EPHEMERIS_TYPE": 0,
    "CLASSIFICATION_TYPE": "U",
    "NORAD_CAT_ID": 65473,
    "ELEMENT_SET_NO": 999,
    "REV_AT_EPOCH": 1170,
    "BSTAR": 0.0016274,
    "MEAN_MOTION_DOT": 0.00065362,
    "MEAN_MOTION_DDOT": 0.0,
    "TLE_LINE1": "1 65473U 25195R   25314.40548002  .00065362  00000+0  16274-2 0  9998",
    "TLE_LINE2": "2 65473  53.1565  92.7505 0001531  70.2764 289.8406 15.39669083 11702",
    "COMMENT": "Grouped by shell and plane from TLE"
  }
]